NUSAT-1 (FRESCO)        
1 41557U 16033B   22349.89145167  .00024266  00000+0  59797-3 0  9995
2 41557  97.3898  88.5560 0010905  88.4631  50.5638 15.40503347365255
BEESAT-4                
1 41619U 16040W   22349.68338931  .00028429  00000+0  77345-3 0  9996
2 41619  97.1925  35.8928 0007830 173.6075 186.5271 15.37459376348508
CAS-2T & KS-1Q          
1 41847U 16066G   22349.78608500  .00000875  00000+0  13978-3 0  9997
2 41847  98.5300  54.0899 0363010  27.4063 334.5766 14.38955426320423
NAYIF-1 (EO-88)         
1 42017U 17008BX  22348.68227488  .00030074  00000+0  69838-3 0  9994
2 42017  97.2465  52.7632 0003182 336.8771  23.2333 15.42310477324776
ZHUHAI-1 02 (CAS-4B)    
1 42759U 17034B   22349.65495250  .00006382  00000+0  36187-3 0  9994
2 42759  43.0185  52.8730 0010724 349.6062 146.6129 15.13519658303794
ZHUHAI-1 01 (CAS-4A)    
1 42761U 17034D   22349.68213017  .00006785  00000+0  38281-3 0  9993
2 42761  43.0177  51.3759 0010992 351.7513 154.7778 15.13618455303802
MAX VALIER SAT          
1 42778U 17036P   22349.79541303  .00016019  00000+0  54273-3 0  9997
2 42778  97.1837  24.8146 0011239  47.3943 312.8244 15.30581799304601
RADFXSAT (FOX-1B)       
1 43017U 17073E   22349.65014760  .00008307  00000+0  61226-3 0  9999
2 43017  97.6524 236.3555 0242547 314.0567  44.0896 14.82948628273958
FOX-1D (AO-92)          
1 43137U 18004AC  22348.72512607  .00015753  00000+0  48462-3 0  9997
2 43137  97.3521  62.5504 0008441  83.1848 277.0355 15.33717958273930
DIWATA-2B               
1 43678U 18084H   22349.82087160  .00001778  00000+0  17855-3 0  9992
2 43678  97.9955 125.5483 0010846  53.2561 306.9665 14.92555956224906
ES'HAIL 2               
1 43700U 18090A   22349.51824716  .00000166  00000+0  00000+0 0  9997
2 43700   0.0163 319.0138 0001579 342.7326 354.8094  1.00273612 14842
FOX-1CLIFF (AO-95)      
1 43770U 18099N   22349.74706324  .00003284  00000+0  28628-3 0  9996
2 43770  97.6008  51.2815 0014782  33.0191 327.1951 14.97463520220131
ITASAT 1                
1 43786U 18099AE  22349.72987475  .00003973  00000+0  34525-3 0  9997
2 43786  97.6032  52.2694 0015118  27.1852 333.0159 14.97467384220175
JY1SAT (JO-97)          
1 43803U 18099AX  22349.87605702  .00004144  00000+0  35314-3 0  9991
2 43803  97.6007  52.2420 0015195  25.2631 334.9332 14.98208673220227
UWE-4                   
1 43880U 18111E   22349.67447612  .00005089  00000+0  42008-3 0  9990
2 43880  97.6556 252.8056 0012830  77.9014 282.3646 14.99363203216845
NEXUS (FO-99)           
1 43937U 19003F   22349.63462621  .00022775  00000+0  64612-3 0  9993
2 43937  97.1125  16.3232 0016562 219.1939 140.8108 15.36089397217737
PSAT2 (NO-104)          
1 44354U 19036R   22349.04677126  .00164292  64611-6  74175-3 0  9997
2 44354  28.5214 343.6995 0135064 243.2863 115.3863 15.70051674192768
JAISAT-1                
1 44419U 19038F   22349.87719455  .00014498  00000+0  65599-3 0  9991
2 44419  97.6584 322.0928 0016055 219.2426 140.7646 15.20901543190594
DUCHIFAT-3              
1 44854U 19089C   22349.63052895  .00006208  00000+0  46273-3 0  9990
2 44854  36.9640 105.1961 0008203 259.4005 118.8540 15.02593883165188
CAS-6 (TIANQIN 1)       
1 44881U 19093C   22349.81605499  .00000873  00000+0  11666-3 0  9999
2 44881  97.8800  66.3125 0014055 320.2654  39.7516 14.81973301161634
RS-44 & BREEZE-KM R/B   
1 44909U 19096E   22349.80753908  .00000034  00000+0  99154-4 0  9999
2 44909  82.5208 109.8022 0216530 255.6029 102.0952 12.79717072138702
ORBITAL FACTORY 2 (OF-2)
1 45113U 19071C   22348.98097554  .00067585  00000+0  82611-3 0  9999
2 45113  51.6337 243.6951 0011323 125.6674 234.5374 15.59711055161399
HUSKYSAT-1 (HO-107)     
1 45119U 19071J   22349.44170376  .00059120  00000+0  81524-3 0  9999
2 45119  51.6329 243.7374 0011123 121.5547 238.6532 15.56562288161422
BY70-2                  
1 45857U 20042B   22349.83670914  .00011363  00000+0  14162-2 0  9994
2 45857  97.9435  65.1359 0009216 241.7300 118.2975 14.82581481132306
SALSAT                  
1 46495U 20068K   22349.81481156  .00003367  00000+0  23798-3 0  9998
2 46495  97.7492 291.4451 0017074  27.7820 332.4314 15.05477345121464
BY70-3                  
1 46839U 20079N   22349.74871090  .00053159  00000+0  83025-3 0  9997
2 46839  97.1782  60.4486 0004498  49.0105 105.4829 15.53633539118268
RADFXSAT-2 (AO-109)     
1 47311U 21002C   22349.47175295  .00014238  00000+0  49976-3 0  9996
2 47311  60.6853  39.1901 0038932  83.0713 277.4803 15.29000041106107
UVSQ-SAT                
1 47438U 21006AB  22349.70347428  .00010485  00000+0  51495-3 0  9994
2 47438  97.4143  45.0195 0011479  13.1870 346.9662 15.18193203104758
DIY-1 (ARDUIQUBE)       
1 47963U 21022AH  22349.00500438  .00032290  00000+0  14453-2 0  9990
2 47963  97.5168 248.8954 0011762 225.1743 134.8538 15.21149495 94318
XW-3 (CAS-9)            
1 50466U 21131B   22349.85013271  .00000323  00000+0  12015-3 0  9995
2 50466  98.5683  66.9003 0003826 339.6540  20.4495 14.38594818 50993
TEVEL-3                 
1 50988U 22002E   22349.79004620  .00011787  00000+0  59241-3 0  9991
2 50988  97.4614  53.8483 0009931 148.1830 307.7340 15.17370736 50886
TEVEL-8                 
1 50989U 22002F   22349.80142547  .00011597  00000+0  58385-3 0  9992
2 50989  97.4621  53.8978 0010022 147.3375 307.8294 15.17313321 50888
TEVEL-5                 
1 50998U 22002Q   22349.75519660  .00012011  00000+0  59385-3 0  9993
2 50998  97.4603  54.0240 0011372 144.6719 338.0728 15.17925930 50898
TEVEL-6                 
1 50999U 22002R   22349.75401325  .00012001  00000+0  59322-3 0  9992
2 50999  97.4602  54.0207 0011494 144.5786 336.9218 15.17932232 50893
TEVEL-1                 
1 51013U 22002AF  22349.79539435  .00011670  00000+0  58708-3 0  9996
2 51013  97.4603  53.8185 0009807 148.2126 307.2137 15.17339954 50880
TEVEL-7                 
1 51062U 22002CG  22349.80341920  .00011640  00000+0  58602-3 0  9992
2 51062  97.4621  53.8792 0009959 146.6441 308.1916 15.17313308 50888
TEVEL-4                 
1 51063U 22002CH  22349.80524512  .00011534  00000+0  58106-3 0  9994
2 51063  97.4613  53.8744 0009900 146.7545 307.8763 15.17293767 50881
TEVEL-2                 
1 51069U 22002CP  22349.79180580  .00011789  00000+0  59260-3 0  9995
2 51069  97.4606  53.8297 0009815 147.5635 308.2218 15.17366366 50882
GREENCUBE               
1 53106U 22080B   22340.05508001 -.00000003  00000+0  00000+0 0  9999
2 53106  70.1754  26.8219 0009008 228.0435 131.9458  6.42557522  9345
YUZGU 9 (RS3S)          
1 53308U 98067TT  22349.80754383  .00187704  00000+0  13636-2 0  9994
2 53308  51.6338 147.8553 0006529 225.9710 134.0751 15.72234574 23015
YUZGU 7 (RS1S)          
1 53309U 98067TU  22349.84411328  .00189526  00000+0  13257-2 0  9991
2 53309  51.6333 147.3404 0007074 230.3032 129.7343 15.73113991 22976
YUZGU 11 (RS5S)         
1 53310U 98067TV  22349.80621067  .00188039  00000+0  13625-2 0  9999
2 53310  51.6337 147.8454 0006908 225.4101 134.6334 15.72291533 22994
YUZGU 12 (RS6S)         
1 53311U 98067TW  22348.86323309  .00177691  00000+0  12154-2 0  9991
2 53311  51.6328 152.0384 0006742 222.4241 137.6237 15.73677332 22871
TSIOLKOVSKY-RYAZAN 1 (*)
1 53312U 98067TX  22349.84952535  .00184171  00000+0  13082-2 0  9992
2 53312  51.6337 147.3861 0007336 231.0071 129.0274 15.72768204 22960
TSIOLKOVSKY-RYAZAN 2 (*)
1 53313U 98067TY  22349.84387091  .00187664  00000+0  13260-2 0  9990
2 53313  51.6344 147.3487 0006795 232.4273 127.6108 15.72885643 23014
YUZGU 10 (RS4S)         
1 53321U 98067TZ  22349.85865847  .00178564  00000+0  12746-2 0  9997
2 53321  51.6332 147.4454 0006857 229.2058 130.8346 15.72675462 23015
RS29S (SXC3-2110 CYCLO*)
1 53373U 22096D   22349.79360368  .00016366  00000+0  60784-3 0  9991
2 53373  97.4282 250.4669 0003338  80.0102   5.2753 15.27631119 19597
RS32S (SXC3-212 MONITO*)
1 53374U 22096E   22349.78602543  .00014360  00000+0  53358-3 0  9996
2 53374  97.4278 250.4717 0003324  72.7422  15.8168 15.27646380 19598
RS34S (SXC3-218 KUZBAS*)
1 53375U 22096F   22349.86304155  .00013332  00000+0  50199-3 0  9992
2 53375  97.4277 250.5172 0003446  77.5137 349.0165 15.27225787 19600
RS23S (SXC3-21 UTMN)    
1 53376U 22096G   22349.79504297  .00013939  00000+0  52336-3 0  9992
2 53376  97.4276 250.4583 0003397  73.4539 359.7880 15.27307617 19594
RS28S (SXC3-214 MIET-A*)
1 53377U 22096H   22349.78923465  .00013055  00000+0  49167-3 0  9991
2 53377  97.4281 250.4538 0003468  76.3999 325.1086 15.27221212 19593
RS26S (KAI-1)           
1 53378U 22096J   22349.80421613  .00011627  00000+0  44127-3 0  9997
2 53378  97.4279 250.4515 0003370  70.3655  16.5513 15.26996959 19593
RS19S (SXC3-219 ISOI)   
1 53381U 22096M   22349.82298014  .00013536  00000+0  50160-3 0  9995
2 53381  97.4277 250.5769 0004882  19.6379  65.1394 15.27744147 19605
RS21S (CUBESX-HSE-2)    
1 53383U 22096P   22349.88138481  .00013761  00000+0  50886-3 0  9999
2 53383  97.4284 250.6459 0005171  18.2596  47.2849 15.27808204 19612
RS30S (SXC3-217 SIREN)  
1 53384U 22096Q   22349.88545081  .00011768  00000+0  43841-3 0  9996
2 53384  97.4279 250.6386 0005015  18.1453  44.8902 15.27602148 19616
RS20S (GEOSCAN-EDELVEIS)
1 53385U 22096R   22349.92161237  .00017359  00000+0  62516-3 0  9991
2 53385  97.4276 250.7691 0005448  15.6104 116.1962 15.28625632 19656
RS33S (SXC3-215 VIZARD) 
1 53386U 22096S   22349.80437697  .00020410  00000+0  71520-3 0  9992
2 53386  97.4273 250.7465 0006233  14.6966  60.6174 15.29482334 19638
